PHASE 3B (AO-10)        
1 14129U 83058B   24366.09220930 -.00000083  00000+0  00000+0 0  9997
2 14129  27.2164 308.0831 6043467 329.3267   6.2135  2.05871509284510
EYESAT A (AO-27)        
1 22825U 93061C   24366.42085017  .00000504  00000+0  20982-3 0  9998
2 22825  98.7625  60.9973 0007787 216.3024 143.7630 14.30694791630815
GOMX-1                  
1 39430U 13066Q   24366.89062031  .00008121  00000+0  12907-2 0  9997
2 39430  97.7023 229.2567 0135178 343.6800  16.0072 14.66335730591819
CUBEBUG-2 (LO-74)       
1 39440U 13066AA  24366.58269841  .00014506  00000+0  15499-2 0  9995
2 39440  97.8344 306.7065 0065123 348.9371  11.0409 14.87312040597631
QB50P1                  
1 40025U 14033R   24366.54027172  .00019968  00000+0  13736-2 0  9995
2 40025  98.0667 334.9370 0009878 232.4669 127.5660 15.05906920572516
CANX-2                  
1 32790U 08021H   24365.66017560  .00013317  00000+0  10983-2 0  9990
2 32790  97.7953 328.7501 0013596  48.4298 311.8088 14.99077033904766
BRITE-AUSTRIA           
1 39091U 13009F   24366.58657747  .00000908  00000+0  32620-3 0  9997
2 39091  98.3817 188.7842 0010945  35.6986 324.4930 14.36131145620590
DELFI-N3XT              
1 39428U 13066N   24366.49314031  .00014993  00000+0  16651-2 0  9994
2 39428  97.8385 280.3747 0091025 165.2058 195.1852 14.84280922595294
SNAP-3 EDDIE            
1 40972U 15058J   24366.84797920  .00055219  00000+0  28083-2 0  9992
2 40972  64.7647  53.6530 0127981 244.0476 114.7414 15.09589924 37571
HORYU-4                 
1 41340U 16012D   24366.66503626  .00036887  00000+0  13485-2 0  9991
2 41340  30.9996 119.4552 0007399 187.7533 172.2996 15.26864332488241
AEROCUBE 8C             
1 41853U 16067F   24366.98561055  .00020007  00000+0  11153-2 0  9992
2 41853  98.0924 186.0144 0007736  88.2242 271.9874 15.13605960445241
PROMETHEUS 2-1          
1 41854U 16067G   25001.01680203  .00063644  00000+0  20683-2 0  9993
2 41854  98.0906 197.7067 0009739  89.4729 270.7626 15.31633024445854
CORVUS BC1              
1 42847U 17042Y   24366.76323743  .00009710  00000+0  76257-3 0  9991
2 42847  97.3674 181.7302 0013072  84.7975 275.4742 15.01029535407067
MOVE-II                 
1 43780U 18099Y   24366.84912710  .00088600  00000+0  25418-2 0  9995
2 43780  97.4927  70.1175 0004675  14.1524 345.9850 15.35518885333037
BEESAT-8                
1 48085U 21022AP  24365.72137096  .00432562  00000+0  29596-2 0  9991
2 48085  97.4765 273.5903 0011434 103.2949 256.9590 15.73466822208230
SITRO-AIS 12 (SMIRENNIY)
1 57204U 23091AQ  25001.15634489  .00029821  00000+0  14464-2 0  9993
2 57204  97.5864  60.1755 0011404 137.1670 223.0454 15.18395368 83525
SITRO-AIS 11 (SHEFFER)  
1 57208U 23091AU  24366.92903499  .00027774  00000+0  13426-2 0  9997
2 57208  97.5860  60.0001 0011208 138.4693 221.7394 15.18529760 83498
ROBUSTA-3A (MEDITERRAN*)
1 60243U 24128J   24365.75373882  .00021396  00000+0  16749-2 0  9994
2 60243  61.9910 279.6135 0031607   9.7768 350.3930 15.00669781 26059
IRIDIUM 128             
1 42811U 17039J   24366.52651193  .00000193  00000+0  62005-4 0  9998
2 42811  86.3962 247.7079 0001938  92.7575 267.3842 14.34216980393638
IRIDIUM 159             
1 43578U 18061K   24366.66312752  .00000766  00000+0  26652-3 0  9998
2 43578  86.3965 279.2229 0002226  82.7294 277.4155 14.34219730337056
IRIDIUM 181             
1 56726U 23068S   24366.65928281  .00001398  00000+0  40708-3 0  9999
2 56726  86.6868 278.8545 0002435  92.8794 267.2686 14.43579628 85629
